IRIDIUM 119             
1 42959U 17061E   25139.56250958  .00000211  00000+0  68129-4 0  9997
2 42959  86.4016 189.7337 0002208 100.4451 259.6994 14.34218385398396
IRIDIUM 107             
1 42960U 17061F   25139.58151158  .00000114  00000+0  33505-4 0  9995
2 42960  86.4016 189.7447 0002690 103.1787 256.9709 14.34218923398401
IRIDIUM 132             
1 42961U 17061G   25139.58785584  .00000010  00000+0 -33965-5 0  9999
2 42961  86.4019 189.7243 0002298  96.9249 263.2208 14.34217685398404
IRIDIUM 136             
1 42962U 17061H   25139.68933716  .00000014  00000+0 -19446-5 0  9995
2 42962  86.4017 189.6865 0002182 100.4747 259.6694 14.34217700398437
IRIDIUM 139             
1 42963U 17061J   25139.83521721  .00000067  00000+0  16892-4 0  9990
2 42963  86.4015 189.6813 0002539  98.2835 261.8649 14.34217842398462
IRIDIUM 125             
1 42964U 17061K   25139.54345637  .00000166  00000+0  52351-4 0  9999
2 42964  86.4018 189.8568 0002241 109.9074 250.2363 14.34217680398432
IRIDIUM 135             
1 43070U 17083A   25139.51758296  .00000031  00000+0  39682-5 0  9992
2 43070  86.3945 126.6029 0002375  82.5324 277.6142 14.34217497387726
IRIDIUM 138             
1 43071U 17083B   25139.68248962  .00000003  00000+0 -59903-5 0  9993
2 43071  86.3937 126.2086 0001678  93.5871 266.5517 14.34217350387733
